{"type": "FeatureCollection", "features": [ {"type": "Feature", "properties": {"norad_id": 65304, "name": "DRAGON CRS-33", "group": "stations", "lat": 29.85266803963676, "lon": -109.37574439837788, "alt_km": 415.4881393810283, "timestamp": "2025-12-21T18:54:57.256765+00:00", "meta": {"OBJECT_NAME": "DRAGON CRS-33", "OBJECT_ID": "2025-186A", "EPOCH": "2025-12-21T13:40:08.668128", "MEAN_MOTION": 15.49703708, "ECCENTRICITY": 0.00031656, "INCLINATION": 51.6324, "RA_OF_ASC_NODE": 98.7522, "ARG_OF_PERICENTER": 281.5679, "MEAN_ANOMALY": 78.4955, "EPHEMERIS_TYPE": 0, "CLASSIFICATION_TYPE": "U", "NORAD_CAT_ID": 65304, "ELEMENT_SET_NO": 999, "REV_AT_EPOCH": 11, "BSTAR": 0.0001683656, "MEAN_MOTION_DOT": 9.066e-05, "MEAN_MOTION_DDOT": 0}, "tle": {"line1": "1 65304U 25186A   25355.56954477  .00009066  00000+0  16837-3 0  9995", "line2": "2 65304  51.6324  98.7522 0003165 281.5679  78.4955 15.49703708   111"}}, "geometry": {"type": "Point", "coordinates": [-109.37574439837788, 29.85266803963676]}}, {"type": "Feature", "properties": {"norad_id": 65586, "name": "PROGRESS-MS 32", "group": "stations", "lat": 29.852667497999196, "lon": -109.3757437585819, "alt_km": 415.48813945077836, "timestamp": "2025-12-21T18:54:57.256777+00:00", "meta": {"OBJECT_NAME": "PROGRESS-MS 32", "OBJECT_ID": "2025-204A", "EPOCH": "2025-12-21T13:40:08.668128", "MEAN_MOTION": 15.49703708, "ECCENTRICITY": 0.00031656, "INCLINATION": 51.6324, "RA_OF_ASC_NODE": 98.7522, "ARG_OF_PERICENTER": 281.5679, "MEAN_ANOMALY": 78.4955, "EPHEMERIS_TYPE": 0, "CLASSIFICATION_TYPE": "U", "NORAD_CAT_ID": 65586, "ELEMENT_SET_NO": 999, "REV_AT_EPOCH": 27, "BSTAR": 0.0001683656, "MEAN_MOTION_DOT": 9.066e-05, "MEAN_MOTION_DDOT": 0}, "tle": {"line1": "1 65586U 25204A   25355.56954477  .00009066  00000+0  16837-3 0  9998", "line2": "2 65586  51.6324  98.7522 0003165 281.5679  78.4955 15.49703708   270"}}, "geometry": {"type": "Point", "coordinates": [-109.3757437585819, 29.852667497999196]}}, {"type": "Feature", "properties": {"norad_id": 65616, "name": "CYGNUS NG-23", "group": "stations", "lat": 29.85266704663434, "lon": -109.37574322541835, "alt_km": 415.4881395089051, "timestamp": "2025-12-21T18:54:57.256787+00:00", "meta": {"OBJECT_NAME": "CYGNUS NG-23", "OBJECT_ID": "2025-208A", "EPOCH": "2025-12-21T13:40:08.668128", "MEAN_MOTION": 15.49703708, "ECCENTRICITY": 0.00031656, "INCLINATION": 51.6324, "RA_OF_ASC_NODE": 98.7522, "ARG_OF_PERICENTER": 281.5679, "MEAN_ANOMALY": 78.4955, "EPHEMERIS_TYPE": 0, "CLASSIFICATION_TYPE": "U", "NORAD_CAT_ID": 65616, "ELEMENT_SET_NO": 999, "REV_AT_EPOCH": 22, "BSTAR": 0.0001683656, "MEAN_MOTION_DOT": 9.066e-05, "MEAN_MOTION_DDOT": 0}, "tle": {"line1": "1 65616U 25208A   25355.56954477  .00009066  00000+0  16837-3 0  9996", "line2": "2 65616  51.6324  98.7522 0003165 281.5679  78.4955 15.49703708   229"}}, "geometry": {"type": "Point", "coordinates": [-109.37574322541835, 29.85266704663434]}}, {"type": "Feature", "properties": {"norad_id": 65729, "name": "DRAGONFLY", "group": "stations", "lat": 3.7623889439747984, "lon": -93.66136139961856, "alt_km": 350.0180457988936, "timestamp": "2025-12-21T18:54:57.256797+00:00", "meta": {"OBJECT_NAME": "DRAGONFLY", "OBJECT_ID": "1998-067XH", "EPOCH": "2025-12-21T12:05:00.182112", "MEAN_MOTION": 15.74757439, "ECCENTRICITY": 0.00076429, "INCLINATION": 51.6248, "RA_OF_ASC_NODE": 90.7906, "ARG_OF_PERICENTER": 331.3887, "MEAN_ANOMALY": 28.6692, "EPHEMERIS_TYPE": 0, "CLASSIFICATION_TYPE": "U", "NORAD_CAT_ID": 65729, "ELEMENT_SET_NO": 999, "REV_AT_EPOCH": 1454, "BSTAR": 0.0011143693, "MEAN_MOTION_DOT": 0.00170588, "MEAN_MOTION_DDOT": 0}, "tle": {"line1": "1 65729U 98067XH  25355.50347433  .00170588  00000+0  11144-2 0  9999", "line2": "2 65729  51.6248  90.7906 0007642 331.3887  28.6692 15.74757439 14549"}}, "geometry": {"type": "Point", "coordinates": [-93.66136139961856, 3.7623889439747984]}}, {"type": "Feature", "properties": {"norad_id": 65731, "name": "1998-067XK", "group": "stations", "lat": -18.39406162674976, "lon": 75.99038862962688, "alt_km": 366.47421334552564, "timestamp": "2025-12-21T18:54:57.256808+00:00", "meta": {"OBJECT_NAME": "1998-067XK", "OBJECT_ID": "1998-067XK", "EPOCH": "2025-12-21T12:53:45.326688", "MEAN_MOTION": 15.6733538, "ECCENTRICITY": 0.0004817, "INCLINATION": 51.6299, "RA_OF_ASC_NODE": 92.5431, "ARG_OF_PERICENTER": 301.7878, "MEAN_ANOMALY": 58.2649, "EPHEMERIS_TYPE": 0, "CLASSIFICATION_TYPE": "U", "NORAD_CAT_ID": 65731, "ELEMENT_SET_NO": 999, "REV_AT_EPOCH": 1452, "BSTAR": 0.00084814787, "MEAN_MOTION_DOT": 0.00093893, "MEAN_MOTION_DDOT": 0}, "tle": {"line1": "1 65731U 98067XK  25355.53733017  .00093893  00000+0  84815-3 0  9991", "line2": "2 65731  51.6299  92.5431 0004817 301.7878  58.2649 15.67335380 14521"}}, "geometry": {"type": "Point", "coordinates": [75.99038862962688, -18.39406162674976]}}, {"type": "Feature", "properties": {"norad_id": 65732, "name": "RSP-03", "group": "stations", "lat": 38.10724299435202, "lon": 128.7694701207328, "alt_km": 352.4125705015158, "timestamp": "2025-12-21T18:54:57.256820+00:00", "meta": {"OBJECT_NAME": "RSP-03", "OBJECT_ID": "1998-067XL", "EPOCH": "2025-12-21T12:35:17.944800", "MEAN_MOTION": 15.70746693, "ECCENTRICITY": 0.00057254, "INCLINATION": 51.6266, "RA_OF_ASC_NODE": 91.6927, "ARG_OF_PERICENTER": 306.8902, "MEAN_ANOMALY": 53.1571, "EPHEMERIS_TYPE": 0, "CLASSIFICATION_TYPE": "U", "NORAD_CAT_ID": 65732, "ELEMENT_SET_NO": 999, "REV_AT_EPOCH": 1454, "BSTAR": 0.00095100217, "MEAN_MOTION_DOT": 0.00121759, "MEAN_MOTION_DDOT": 0}, "tle": {"line1": "1 65732U 98067XL  25355.52451325  .00121759  00000+0  95100-3 0  9992", "line2": "2 65732  51.6266  91.6927 0005725 306.8902  53.1571 15.70746693 14546"}}, "geometry": {"type": "Point", "coordinates": [128.7694701207328, 38.10724299435202]}}, {"type": "Feature", "properties": {"norad_id": 65733, "name": "GHS-01", "group": "stations", "lat": -14.689429725319117, "lon": -79.47869302836516, "alt_km": 340.8674847988268, "timestamp": "2025-12-21T18:54:57.256830+00:00", "meta": {"OBJECT_NAME": "GHS-01", "OBJECT_ID": "1998-067XM", "EPOCH": "2025-12-21T07:26:29.308416", "MEAN_MOTION": 15.78445011, "ECCENTRICITY": 0.00086328, "INCLINATION": 51.6276, "RA_OF_ASC_NODE": 91.0058, "ARG_OF_PERICENTER": 334.04, "MEAN_ANOMALY": 26.0167, "EPHEMERIS_TYPE": 0, "CLASSIFICATION_TYPE": "U", "NORAD_CAT_ID": 65733, "ELEMENT_SET_NO": 999, "REV_AT_EPOCH": 1453, "BSTAR": 0.0012619475, "MEAN_MOTION_DOT": 0.00229224, "MEAN_MOTION_DDOT": 0}, "tle": {"line1": "1 65733U 98067XM  25355.31006144  .00229224  00000+0  12619-2 0  9994", "line2": "2 65733  51.6276  91.0058 0008632 334.0400  26.0167 15.78445011 14530"}}, "geometry": {"type": "Point", "coordinates": [-79.47869302836516, -14.689429725319117]}}, {"type": "Feature", "properties": {"norad_id": 65941, "name": "YOTSUBA-KULOVER", "group": "stations", "lat": -44.78108197755196, "lon": -33.70166510811558, "alt_km": 390.36961389866883, "timestamp": "2025-12-21T18:54:57.256840+00:00", "meta": {"OBJECT_NAME": "YOTSUBA-KULOVER", "OBJECT_ID": "1998-067XN", "EPOCH": "2025-12-21T13:15:51.125184", "MEAN_MOTION": 15.60566136, "ECCENTRICITY": 0.0002004, "INCLINATION": 51.6297, "RA_OF_ASC_NODE": 95.6446, "ARG_OF_PERICENTER": 334.8286, "MEAN_ANOMALY": 25.2609, "EPHEMERIS_TYPE": 0, "CLASSIFICATION_TYPE": "U", "NORAD_CAT_ID": 65941, "ELEMENT_SET_NO": 999, "REV_AT_EPOCH": 1123, "BSTAR": 0.00075706467, "MEAN_MOTION_DOT": 0.00063759, "MEAN_MOTION_DDOT": 0}, "tle": {"line1": "1 65941U 98067XN  25355.55267506  .00063759  00000+0  75706-3 0  9998", "line2": "2 65941  51.6297  95.6446 0002004 334.8286  25.2609 15.60566136 11231"}}, "geometry": {"type": "Point", "coordinates": [-33.70166510811558, -44.78108197755196]}}, {"type": "Feature", "properties": {"norad_id": 65942, "name": "BOTAN", "group": "stations", "lat": -19.261180924337303, "lon": 77.44359973232307, "alt_km": 375.1428287465051, "timestamp": "2025-12-21T18:54:57.256850+00:00", "meta": {"OBJECT_NAME": "BOTAN", "OBJECT_ID": "1998-067XP", "EPOCH": "2025-12-21T12:53:25.393344", "MEAN_MOTION": 15.64619472, "ECCENTRICITY": 0.00030368, "INCLINATION": 51.6287, "RA_OF_ASC_NODE": 94.7896, "ARG_OF_PERICENTER": 312.4061, "MEAN_ANOMALY": 47.6677, "EPHEMERIS_TYPE": 0, "CLASSIFICATION_TYPE": "U", "NORAD_CAT_ID": 65942, "ELEMENT_SET_NO": 999, "REV_AT_EPOCH": 1124, "BSTAR": 0.0010329354, "MEAN_MOTION_DOT": 0.00102689, "MEAN_MOTION_DDOT": 0}, "tle": {"line1": "1 65942U 98067XP  25355.53709946  .00102689  00000+0  10329-2 0  9991", "line2": "2 65942  51.6287  94.7896 0003036 312.4061  47.6677 15.64619472 11249"}}, "geometry": {"type": "Point", "coordinates": [77.44359973232307, -19.261180924337303]}}, {"type": "Feature", "properties": {"norad_id": 65943, "name": "E-KAGAKU-1", "group": "stations", "lat": -44.49078831788695, "lon": -34.42892009322977, "alt_km": 389.69090278003205, "timestamp": "2025-12-21T18:54:57.256860+00:00", "meta": {"OBJECT_NAME": "E-KAGAKU-1", "OBJECT_ID": "1998-067XQ", "EPOCH": "2025-12-21T11:43:47.711424", "MEAN_MOTION": 15.60558335, "ECCENTRICITY": 0.00011984, "INCLINATION": 51.6316, "RA_OF_ASC_NODE": 95.9734, "ARG_OF_PERICENTER": 280.9822, "MEAN_ANOMALY": 79.1036, "EPHEMERIS_TYPE": 0, "CLASSIFICATION_TYPE": "U", "NORAD_CAT_ID": 65943, "ELEMENT_SET_NO": 999, "REV_AT_EPOCH": 1122, "BSTAR": 0.00073910068, "MEAN_MOTION_DOT": 0.00062201, "MEAN_MOTION_DDOT": 0}, "tle": {"line1": "1 65943U 98067XQ  25355.48874666  .00062201  00000+0  73910-3 0  9999", "line2": "2 65943  51.6316  95.9734 0001198 280.9822  79.1036 15.60558335 11221"}}, "geometry": {"type": "Point", "coordinates": [-34.42892009322977, -44.49078831788695]}}]}